{
  "type": "FeatureCollection",
  "features": [
    {
      "type": "Feature",
      "properties": {
        "norad_id": 66583,
        "name": "STARLINK-35941",
        "group": "last-30-days",
        "lat": -28.47932956715708,
        "lon": -55.80388059144665,
        "alt_km": 416.60831742703976,
        "timestamp": "2025-12-18T07:01:53.340144+00:00",
        "meta_object_name": "STARLINK-35941",
        "meta_object_id": "2025-268AC",
        "meta_epoch": "2025-12-17T16:09:19.021248",
        "meta_mean_motion": 15.50587602,
        "meta_eccentricity": 0.000148,
        "meta_inclination": 43.001,
        "meta_ra_of_asc_node": 92.2213,
        "meta_arg_of_pericenter": 258.3983,
        "meta_mean_anomaly": 101.6712,
        "meta_ephemeris_type": 0,
        "meta_classification_type": "U",
        "meta_norad_cat_id": 66583,
        "meta_element_set_no": 999,
        "meta_rev_at_epoch": 539,
        "meta_bstar": 0.0010300984,
        "meta_mean_motion_dot": 0.00060577,
        "meta_mean_motion_ddot": 0,
        "tle_line1": "1 66583U 25268AC  25351.67313682  .00060577  00000+0  10301-2 0  9994",
        "tle_line2": "2 66583  43.0010  92.2213 0001480 258.3983 101.6712 15.50587602  5392"
      },
      "geometry": {
        "type": "Point",
        "coordinates": [
          -55.80388059144665,
          -28.47932956715708
        ]
      }
    },
    {
      "type": "Feature",
      "properties": {
        "norad_id": 66584,
        "name": "STARLINK-35939",
        "group": "last-30-days",
        "lat": -29.552583205342497,
        "lon": -53.934038442293776,
        "alt_km": 416.6363402179604,
        "timestamp": "2025-12-18T07:01:53.340156+00:00",
        "meta_object_name": "STARLINK-35939",
        "meta_object_id": "2025-268AD",
        "meta_epoch": "2025-12-17T14:36:03.746880",
        "meta_mean_motion": 15.50606883,
        "meta_eccentricity": 0.0003048,
        "meta_inclination": 43.0024,
        "meta_ra_of_asc_node": 92.5976,
        "meta_arg_of_pericenter": 290.5745,
        "meta_mean_anomaly": 69.4788,
        "meta_ephemeris_type": 0,
        "meta_classification_type": "U",
        "meta_norad_cat_id": 66584,
        "meta_element_set_no": 999,
        "meta_rev_at_epoch": 538,
        "meta_bstar": 0.0010351305,
        "meta_mean_motion_dot": 0.00060925,
        "meta_mean_motion_ddot": 0,
        "tle_line1": "1 66584U 25268AD  25351.60837670  .00060925  00000+0  10351-2 0  9998",
        "tle_line2": "2 66584  43.0024  92.5976 0003048 290.5745  69.4788 15.50606883  5389"
      },
      "geometry": {
        "type": "Point",
        "coordinates": [
          -53.934038442293776,
          -29.552583205342497
        ]
      }
    },
    {
      "type": "Feature",
      "properties": {
        "norad_id": 66585,
        "name": "STARLINK-35963",
        "group": "last-30-days",
        "lat": -30.566174726683464,
        "lon": -52.08460287853962,
        "alt_km": 416.6627849572815,
        "timestamp": "2025-12-18T07:01:53.340170+00:00",
        "meta_object_name": "STARLINK-35963",
        "meta_object_id": "2025-268AE",
        "meta_epoch": "2025-12-17T14:35:34.184256",
        "meta_mean_motion": 15.50599759,
        "meta_eccentricity": 0.00027354,
        "meta_inclination": 43.0011,
        "meta_ra_of_asc_node": 92.5941,
        "meta_arg_of_pericenter": 287.7461,
        "meta_mean_anomaly": 72.3101,
        "meta_ephemeris_type": 0,
        "meta_classification_type": "U",
        "meta_norad_cat_id": 66585,
        "meta_element_set_no": 999,
        "meta_rev_at_epoch": 538,
        "meta_bstar": 0.0010191871,
        "meta_mean_motion_dot": 0.00059957,
        "meta_mean_motion_ddot": 0,
        "tle_line1": "1 66585U 25268AE  25351.60803454  .00059957  00000+0  10192-2 0  9998",
        "tle_line2": "2 66585  43.0011  92.5941 0002735 287.7461  72.3101 15.50599759  5388"
      },
      "geometry": {
        "type": "Point",
        "coordinates": [
          -52.08460287853962,
          -30.566174726683464
        ]
      }
    },
    {
      "type": "Feature",
      "properties": {
        "norad_id": 66586,
        "name": "TJS-21",
        "group": "last-30-days",
        "lat": 49.717737974375986,
        "lon": -161.75129383119196,
        "alt_km": 27811.76638752872,
        "timestamp": "2025-12-18T07:01:53.340187+00:00",
        "meta_object_name": "TJS-21",
        "meta_object_id": "2025-269A",
        "meta_epoch": "2025-12-10T17:31:22.184832",
        "meta_mean_motion": 2.00567425,
        "meta_eccentricity": 0.6805766,
        "meta_inclination": 63.269,
        "meta_ra_of_asc_node": 162.5612,
        "meta_arg_of_pericenter": 269.7806,
        "meta_mean_anomaly": 18.6565,
        "meta_ephemeris_type": 0,
        "meta_classification_type": "U",
        "meta_norad_cat_id": 66586,
        "meta_element_set_no": 999,
        "meta_rev_at_epoch": 39,
        "meta_bstar": -0.044965385,
        "meta_mean_motion_dot": 1.083e-05,
        "meta_mean_motion_ddot": 0,
        "tle_line1": "1 66586U 25269A   25344.73011788  .00001083  00000+0 -44965-1 0  9999",
        "tle_line2": "2 66586  63.2690 162.5612 6805766 269.7806  18.6565  2.00567425   392"
      },
      "geometry": {
        "type": "Point",
        "coordinates": [
          -161.75129383119196,
          49.717737974375986
        ]
      }
    },
    {
      "type": "Feature",
      "properties": {
        "norad_id": 66587,
        "name": "CZ-3B R/B",
        "group": "last-30-days",
        "lat": 26.990321123229013,
        "lon": -167.62503147625284,
        "alt_km": 35724.766650775186,
        "timestamp": "2025-12-18T07:01:53.340204+00:00",
        "meta_object_name": "CZ-3B R/B",
        "meta_object_id": "2025-269B",
        "meta_epoch": "2025-12-17T04:50:14.865216",
        "meta_mean_motion": 2.03937792,
        "meta_eccentricity": 0.75168551,
        "meta_inclination": 51.3435,
        "meta_ra_of_asc_node": 168.6023,
        "meta_arg_of_pericenter": 229.5038,
        "meta_mean_anomaly": 36.3416,
        "meta_ephemeris_type": 0,
        "meta_classification_type": "U",
        "meta_norad_cat_id": 66587,
        "meta_element_set_no": 999,
        "meta_rev_at_epoch": 54,
        "meta_bstar": 0.00055683527,
        "meta_mean_motion_dot": 0.00072738,
        "meta_mean_motion_ddot": -9.18653e-07,
        "tle_line1": "1 66587U 25269B   25351.20156094  .00072738 -91865-6  55684-3 0  9993",
        "tle_line2": "2 66587  51.3435 168.6023 7516855 229.5038  36.3416  2.03937792   541"
      },
      "geometry": {
        "type": "Point",
        "coordinates": [
          -167.62503147625284,
          26.990321123229013
        ]
      }
    },
    {
      "type": "Feature",
      "properties": {
        "norad_id": 66588,
        "name": "STARLINK-36076",
        "group": "last-30-days",
        "lat": -39.828637899427136,
        "lon": 44.29191332794217,
        "alt_km": 445.8314794123935,
        "timestamp": "2025-12-18T07:01:53.340216+00:00",
        "meta_object_name": "STARLINK-36076",
        "meta_object_id": "2025-270A",
        "meta_epoch": "2025-12-17T20:36:58.505472",
        "meta_mean_motion": 15.4069717,
        "meta_eccentricity": 0.00021008,
        "meta_inclination": 42.999,
        "meta_ra_of_asc_node": 163.28,
        "meta_arg_of_pericenter": 255.696,
        "meta_mean_anomaly": 104.3664,
        "meta_ephemeris_type": 0,
        "meta_classification_type": "U",
        "meta_norad_cat_id": 66588,
        "meta_element_set_no": 999,
        "meta_rev_at_epoch": 513,
        "meta_bstar": 0.00042675374,
        "meta_mean_motion_dot": 0.00017563,
        "meta_mean_motion_ddot": 0,
        "tle_line1": "1 66588U 25270A   25351.85901048  .00017563  00000+0  42675-3 0  9998",
        "tle_line2": "2 66588  42.9990 163.2800 0002100 255.6960 104.3664 15.40697170  5137"
      },
      "geometry": {
        "type": "Point",
        "coordinates": [
          44.29191332794217,
          -39.828637899427136
        ]
      }
    },
    {
      "type": "Feature",
      "properties": {
        "norad_id": 66589,
        "name": "STARLINK-35447",
        "group": "last-30-days",
        "lat": -7.283763076410662,
        "lon": 152.65477153730953,
        "alt_km": 444.1409804248433,
        "timestamp": "2025-12-18T07:01:53.340226+00:00",
        "meta_object_name": "STARLINK-35447",
        "meta_object_id": "2025-270B",
        "meta_epoch": "2025-12-17T22:00:01.999584",
        "meta_mean_motion": 15.40651933,
        "meta_eccentricity": 0.00015297,
        "meta_inclination": 42.999,
        "meta_ra_of_asc_node": 162.7076,
        "meta_arg_of_pericenter": 287.7381,
        "meta_mean_anomaly": 132.0658,
        "meta_ephemeris_type": 0,
        "meta_classification_type": "U",
        "meta_norad_cat_id": 66589,
        "meta_element_set_no": 999,
        "meta_rev_at_epoch": 534,
        "meta_bstar": 0.0019198233,
        "meta_mean_motion_dot": 0.00080615,
        "meta_mean_motion_ddot": 0,
        "tle_line1": "1 66589U 25270B   25351.91668981  .00080615  00000+0  19198-2 0  9993",
        "tle_line2": "2 66589  42.9990 162.7076 0001529 287.7381 132.0658 15.40651933  5345"
      },
      "geometry": {
        "type": "Point",
        "coordinates": [
          152.65477153730953,
          -7.283763076410662
        ]
      }
    }
  ]
}